NORAD_CAT_ID,OBJECT_NAME,OBJECT_TYPE,EPOCH,MEAN_MOTION,ECCENTRICITY,INCLINATION,RA_OF_ASC_NODE,ARG_OF_PERICENTER,MEAN_ANOMALY,BSTAR,MEAN_MOTION_DOT,MEAN_MOTION_DDOT,TLE_LINE0,TLE_LINE1,TLE_LINE2,SEMIMAJOR_AXIS,PERIOD,APOGEE,PERIGEE,DECAYED
53529.0,STARLINK-4478,PAYLOAD,2023-10-11 16:57:30,15.08837228,0.0001529,53.2194,64.5134,88.6494,271.4673,2.4118e-05,9.6e-07,0.0,0 STARLINK-4478,1 53529U 22101C   23284.70659761  .00000096  00000-0  24118-4 0  9995,2 53529  53.2194  64.5134 0001529  88.6494 271.4673 15.08837228 63316,6917.889,95.438,540.812,538.696,0.0
53529.0,STARLINK-4478,PAYLOAD,2023-10-12 13:37:30,15.08844975,0.0001336,53.2182,60.649,87.682,272.4325,9.0294e-05,1.15e-05,0.0,0 STARLINK-4478,1 53529U 22101C   23285.56771162  .00001150  00000-0  90294-4 0  9990,2 53529  53.2182  60.6490 0001336  87.6820 272.4325 15.08844975 63449,6917.865,95.437,540.654,538.806,0.0
53529.0,STARLINK-4478,PAYLOAD,2023-10-12 16:48:16,15.08845278,0.0001371,53.2185,60.0549,84.5423,275.5726,0.00021469,3.131e-05,0.0,0 STARLINK-4478,1 53529U 22101C   23285.70018886  .00003131  00000-0  21469-3 0  9991,2 53529  53.2185  60.0549 0001371  84.5423 275.5726 15.08845278 63463,6917.864,95.437,540.678,538.781,0.0
53529.0,STARLINK-4478,PAYLOAD,2023-10-13 02:20:35,15.0884,0.0001423,53.2181,58.2702,74.5241,285.5908,7.9874e-05,9.83e-06,0.0,0 STARLINK-4478,1 53529U 22101C   23286.09763532  .00000983  00000-0  79874-4 0  9995,2 53529  53.2181  58.2702 0001423  74.5241 285.5908 15.08840000 63522,6917.88,95.438,540.73,538.761,0.0
53529.0,STARLINK-4478,PAYLOAD,2023-10-13 13:28:18,15.08832151,0.0001299,53.2192,56.1846,83.8523,276.2617,0.00012643,1.724e-05,0.0,0 STARLINK-4478,1 53529U 22101C   23286.56132054  .00001724  00000-0  12643-3 0  9990,2 53529  53.2192  56.1846 0001299  83.8523 276.2617 15.08832151 63596,6917.904,95.438,540.668,538.871,0.0
53529.0,STARLINK-4478,PAYLOAD,2023-10-13 15:03:40,15.08838399,0.0001456,53.2181,55.8876,89.1637,270.9522,0.00010321,1.355e-05,0.0,0 STARLINK-4478,1 53529U 22101C   23286.62755762  .00001355  00000-0  10321-3 0  9995,2 53529  53.2181  55.8876 0001456  89.1637 270.9522 15.08838399 63601,6917.885,95.438,540.758,538.743,0.0
53529.0,STARLINK-4478,PAYLOAD,2023-10-14 02:11:22,15.08847785,0.0001367,53.2178,53.8084,85.6489,274.4659,0.0001343,1.851e-05,0.0,0 STARLINK-4478,1 53529U 22101C   23287.09123074  .00001851  00000-0  13430-3 0  9997,2 53529  53.2178  53.8084 0001367  85.6489 274.4659 15.08847785 63679,6917.857,95.437,540.667,538.776,0.0
53529.0,STARLINK-4478,PAYLOAD,2023-10-14 13:19:04,15.08847428,0.0001576,53.2178,51.7279,88.2309,271.8863,7.4999e-05,9.06e-06,0.0,0 STARLINK-4478,1 53529U 22101C   23287.55491184  .00000906  00000-0  74999-4 0  9996,2 53529  53.2178  51.7279 0001576  88.2309 271.8863 15.08847428 63744,6917.858,95.437,540.813,538.632,0.0
53529.0,STARLINK-4478,PAYLOAD,2023-10-14 18:05:13,15.08857362,0.0001492,53.2179,50.8339,93.2952,266.8211,0.00010596,1.4e-05,0.0,0 STARLINK-4478,1 53529U 22101C   23287.75362342  .00001400  00000-0  10596-3 0  9993,2 53529  53.2179  50.8339 0001492  93.2952 266.8211 15.08857362 63771,6917.827,95.436,540.724,538.66,0.0
53529.0,STARLINK-4478,PAYLOAD,2023-10-15 13:09:52,15.08831222,0.000148,53.2174,47.2656,89.3475,270.7687,9.1135e-06,-1.43e-06,0.0,0 STARLINK-4478,1 53529U 22101C   23288.54852265 -.00000143  00000-0  91135-5 0  9993,2 53529  53.2174  47.2656 0001480  89.3475 270.7687 15.08831222 63892,6917.907,95.438,540.796,538.748,0.0
53529.0,STARLINK-4478,PAYLOAD,2023-10-15 14:45:15,15.08833097,0.0001391,53.2174,46.9681,88.1968,271.9183,4.13e-05,3.69e-06,0.0,0 STARLINK-4478,1 53529U 22101C   23288.61476217  .00000369  00000-0  41300-4 0  9997,2 53529  53.2174  46.9681 0001391  88.1968 271.9183 15.08833097 63909,6917.901,95.438,540.729,538.804,0.0
53529.0,STARLINK-4478,PAYLOAD,2023-10-15 17:56:01,15.08836796,0.0001398,53.2179,46.373,87.4418,272.6735,2.5209e-05,1.13e-06,0.0,0 STARLINK-4478,1 53529U 22101C   23288.74724084  .00000113  00000-0  25209-4 0  9996,2 53529  53.2179  46.3730 0001398  87.4418 272.6735 15.08836796 63924,6917.89,95.438,540.722,538.788,0.0
53529.0,STARLINK-4478,PAYLOAD,2023-10-16 11:25:15,15.08845724,0.0001458,53.2178,43.1025,92.8982,267.2177,0.00019144,2.761e-05,0.0,0 STARLINK-4478,1 53529U 22101C   23289.47587883  .00002761  00000-0  19144-3 0  9992,2 53529  53.2178  43.1025 0001458  92.8982 267.2177 15.08845724 64032,6917.863,95.437,540.737,538.719,0.0
53529.0,STARLINK-4478,PAYLOAD,2023-10-16 14:36:02,15.08851929,0.0001473,53.2183,42.5075,90.7473,269.3687,0.0003506,5.298e-05,0.0,0 STARLINK-4478,1 53529U 22101C   23289.60835718  .00005298  00000-0  35060-3 0  9993,2 53529  53.2183  42.5075 0001473  90.7473 269.3687 15.08851929 64050,6917.844,95.437,540.728,538.69,0.0
53529.0,STARLINK-4478,PAYLOAD,2023-10-17 11:16:03,15.08839973,0.0001679,53.2197,38.6445,91.8613,268.2571,0.00012615,1.72e-05,0.0,0 STARLINK-4478,1 53529U 22101C   23290.46948229  .00001720  00000-0  12615-3 0  9998,2 53529  53.2197  38.6445 0001679  91.8613 268.2571 15.08839973 64187,6917.88,95.438,540.907,538.584,0.0
53529.0,STARLINK-4478,PAYLOAD,2023-10-17 23:59:08,15.08843347,0.0001595,53.2194,36.2642,81.3509,278.7664,0.00013304,1.83e-05,0.0,0 STARLINK-4478,1 53529U 22101C   23290.99940095  .00001830  00000-0  13304-3 0  9997,2 53529  53.2194  36.2642 0001595  81.3509 278.7664 15.08843347 64260,6917.87,95.437,540.839,538.632,0.0
53529.0,STARLINK-4478,PAYLOAD,2023-10-18 15:52:58,15.08854361,0.0001733,53.2184,33.2937,92.0363,268.0828,0.00018338,2.633e-05,0.0,0 STARLINK-4478,1 53529U 22101C   23291.66179379  .00002633  00000-0  18338-3 0  9995,2 53529  53.2184  33.2937 0001733  92.0363 268.0828 15.08854361 64367,6917.836,95.437,540.9,538.503,0.0
53529.0,STARLINK-4478,PAYLOAD,2023-10-18 23:49:55,15.08844491,0.0001901,53.2204,31.8056,88.1312,271.9898,9.158e-05,1.17e-05,0.0,0 STARLINK-4478,1 53529U 22101C   23291.99299908  .00001170  00000-0  91580-4 0  9998,2 53529  53.2204  31.8056 0001901  88.1312 271.9898 15.08844491 64412,6917.867,95.437,541.047,538.417,0.0
53529.0,STARLINK-4478,PAYLOAD,2023-10-19 12:32:59,15.08849751,0.0001958,53.2195,29.427,88.7969,271.3247,0.00021546,3.143e-05,0.0,0 STARLINK-4478,1 53529U 22101C   23292.52291595  .00003143  00000-0  21546-3 0  9998,2 53529  53.2195  29.4270 0001958  88.7969 271.3247 15.08849751 64492,6917.851,95.437,541.07,538.361,0.0
53529.0,STARLINK-4478,PAYLOAD,2023-10-19 15:43:45,15.08862245,0.0001656,53.2178,28.8335,96.5512,263.5669,0.00046343,7.1e-05,0.0,0 STARLINK-4478,1 53529U 22101C   23292.65538926  .00007100  00000-0  46343-3 0  9993,2 53529  53.2178  28.8335 0001656  96.5512 263.5669 15.08862245 64511,6917.812,95.436,540.823,538.532,0.0
53529.0,STARLINK-4478,PAYLOAD,2023-10-19 23:40:42,15.08843324,0.0002093,53.2167,27.3472,81.9562,278.1667,6.8292e-05,7.99e-06,0.0,0 STARLINK-4478,1 53529U 22101C   23292.98659752  .00000799  00000-0  68292-4 0  9995,2 53529  53.2167  27.3472 0002093  81.9562 278.1667 15.08843324 64566,6917.87,95.437,541.183,538.287,0.0
53529.0,STARLINK-4478,PAYLOAD,2023-10-20 12:23:47,15.0882938,0.0001639,53.2183,24.9691,86.8294,273.2886,-0.00012385,-2.258e-05,0.0,0 STARLINK-4478,1 53529U 22101C   23293.51652396 -.00002258  00000-0 -12385-3 0  9997,2 53529  53.2183  24.9691 0001639  86.8294 273.2886 15.08829380 64645,6917.913,95.438,540.912,538.644,0.0
53529.0,STARLINK-4478,PAYLOAD,2023-10-21 12:14:33,15.08877597,0.0001537,53.2187,20.506,84.7048,275.412,0.00091631,0.0001434,0.0,0 STARLINK-4478,1 53529U 22101C   23294.51010557  .00014340  00000-0  91631-3 0  9999,2 53529  53.2187  20.5060 0001537  84.7048 275.4120 15.08877597 64796,6917.765,95.435,540.694,538.567,0.0
53529.0,STARLINK-4478,PAYLOAD,2023-10-21 15:25:19,15.08881903,0.0001591,53.2189,19.9091,81.6949,278.4223,0.00095476,0.00014957,0.0,0 STARLINK-4478,1 53529U 22101C   23294.64258171  .00014957  00000-0  95476-3 0  9994,2 53529  53.2189  19.9091 0001591  81.6949 278.4223 15.08881903 64816,6917.752,95.435,540.718,538.517,0.0
53529.0,STARLINK-4478,PAYLOAD,2023-10-22 12:05:20,15.08805466,0.0001536,53.2184,16.046,98.7512,261.3654,0.00026014,3.851e-05,0.0,0 STARLINK-4478,1 53529U 22101C   23295.50370904  .00003851  00000-0  26014-3 0  9992,2 53529  53.2184  16.0460 0001536  98.7512 261.3654 15.08805466 64946,6917.986,95.44,540.914,538.788,0.0
53529.0,STARLINK-4478,PAYLOAD,2023-10-23 11:56:09,15.08822389,0.0001618,53.2191,11.5853,100.4318,259.6857,0.00096182,0.00015045,0.0,0 STARLINK-4478,1 53529U 22101C   23296.49733011  .00015045  00000-0  96182-3 0  9994,2 53529  53.2191  11.5853 0001618 100.4318 259.6857 15.08822389 65091,6917.934,95.439,540.919,538.68,0.0
53529.0,STARLINK-4478,PAYLOAD,2023-10-24 11:46:56,15.08847897,0.0001534,53.2191,7.1259,96.8398,263.2768,0.00081993,0.00012788,0.0,0 STARLINK-4478,1 53529U 22101C   23297.49093265  .00012788  00000-0  81993-3 0  9990,2 53529  53.2191   7.1259 0001534  96.8398 263.2768 15.08847897 65245,6917.856,95.437,540.782,538.66,0.0
53529.0,STARLINK-4478,PAYLOAD,2023-10-25 11:37:43,15.08840002,0.0001645,53.2198,2.6665,100.0622,260.0556,0.00017155,2.443e-05,0.0,0 STARLINK-4478,1 53529U 22101C   23298.48453377  .00002443  00000-0  17155-3 0  9990,2 53529  53.2198   2.6665 0001645 100.0622 260.0556 15.08840002 65391,6917.88,95.438,540.883,538.607,0.0
53529.0,STARLINK-4478,PAYLOAD,2023-10-26 11:28:30,15.08851304,0.0001584,53.2191,358.205,94.4339,265.6835,0.00015051,2.109e-05,0.0,0 STARLINK-4478,1 53529U 22101C   23299.47812769  .00002109  00000-0  15051-3 0  9996,2 53529  53.2191 358.2050 0001584  94.4339 265.6835 15.08851304 65540,6917.846,95.437,540.807,538.615,0.0
53529.0,STARLINK-4478,PAYLOAD,2023-10-27 12:54:40,15.0885436,0.0001533,53.2175,353.4455,88.4725,271.6442,0.00024848,3.67e-05,0.0,0 STARLINK-4478,1 53529U 22101C   23300.53796352  .00003670  00000-0  24848-3 0  9993,2 53529  53.2175 353.4455 0001533  88.4725 271.6442 15.08854360 65708,6917.836,95.437,540.762,538.641,0.0
